OBJECT_NAME,OBJECT_ID,EPOCH,MEAN_MOTION,ECCENTRICITY,INCLINATION,RA_OF_ASC_NODE,ARG_OF_PERICENTER,MEAN_ANOMALY,EPHEMERIS_TYPE,CLASSIFICATION_TYPE,NORAD_CAT_ID,ELEMENT_SET_NO,REV_AT_EPOCH,BSTAR,MEAN_MOTION_DOT,MEAN_MOTION_DDOT
TIANMU-1 20,2023-208B,2026-06-25T06:56:11.887008,15.32874677,.00055889,97.4448,293.2744,298.7659,61.3021,0,U,58661,999,13866,.29516807E-3,.9298E-4,0
TIANMU-1 21,2023-208C,2026-06-25T06:21:47.041920,15.35207097,.00056766,97.4506,295.9661,288.4410,71.6216,0,U,58662,999,13880,.33135296E-3,.11252E-3,0
TIANMU-1 22,2023-208D,2026-06-25T07:22:38.205696,15.31160795,.00025178,97.4502,292.5782,329.0671,31.0421,0,U,58663,999,13857,.28410957E-3,.8475E-4,0
TIANMU-1 15,2024-004A,2026-06-25T06:57:11.056320,15.26954275,.00058833,97.4670,2.4819,325.8499,34.2361,0,U,58700,999,13701,.22700605E-3,.5935E-4,0
TIANMU-1 16,2024-004B,2026-06-25T06:43:34.163328,15.26822993,.000503,97.4617,1.7006,338.0629,22.0394,0,U,58701,999,13701,.23463177E-3,.6112E-4,0
TIANMU-1 17,2024-004C,2026-06-25T07:57:00.310176,15.26822655,.00047115,97.4644,2.2395,345.4176,14.6926,0,U,58702,999,13701,.24553238E-3,.6399E-4,0
TIANMU-1 18,2024-004D,2026-06-24T10:54:22.598208,15.27066947,.00033273,97.4664,1.6230,349.3855,10.7313,0,U,58703,999,13688,.17799392E-3,.4651E-4,0
INSAT-3DS,2024-033A,2026-06-25T03:17:38.636736,1.00270849,.00014147,0.0576,102.6872,340.0050,322.0784,0,U,58990,999,4714,0,-.146E-5,0
METEOR-M2 4,2024-039A,2026-06-25T06:32:46.964256,14.22430350,.00077281,98.7013,135.4693,139.1326,221.0433,0,U,59051,999,12041,.25921372E-4,.14E-6,0
GOES 19,2024-119A,2026-06-25T03:49:38.564832,1.00271732,.0000464,0.0439,171.1940,331.0701,113.2562,0,U,60133,999,704,0,-.239E-5,0
MTG-S1,2025-143A,2026-06-24T17:46:37.650720,1.00400949,.00005853,0.5970,340.6178,288.6722,269.7793,0,U,64723,999,349,0,.23E-6,0
METOP-SGA1,2025-172A,2026-06-25T04:09:43.187328,14.19816295,.00081771,98.6642,235.7313,30.1399,330.0247,0,U,65159,999,4492,.38625169E-4,.39E-6,0
FENGYUN 3H,2025-219A,2026-06-25T06:51:15.926400,14.19921694,.00015378,98.6768,116.8973,71.5183,288.6161,0,U,65815,999,3853,.37178591E-4,.36E-6,0
