[{"id":"58661","name":"TIANMU-1 20","tle1":"1 58661U 23208B   26176.28902647  .00009298  00000+0  29517-3 0  9995","tle2":"2 58661  97.4448 293.2744 0005588 298.7659  61.3021 15.32874677138664"},{"id":"58662","name":"TIANMU-1 21","tle1":"1 58662U 23208C   26176.26512780  .00011252  00000+0  33135-3 0  9993","tle2":"2 58662  97.4506 295.9661 0005676 288.4410  71.6216 15.35207097138801"},{"id":"58663","name":"TIANMU-1 22","tle1":"1 58663U 23208D   26176.30738664  .00008475  00000+0  28411-3 0  9994","tle2":"2 58663  97.4502 292.5782 0002517 329.0671  31.0421 15.31160795138578"},{"id":"58700","name":"TIANMU-1 15","tle1":"1 58700U 24004A   26176.28971130  .00005935  00000+0  22701-3 0  9999","tle2":"2 58700  97.4670   2.4819 0005883 325.8499  34.2361 15.26954275137010"},{"id":"58701","name":"TIANMU-1 16","tle1":"1 58701U 24004B   26176.28025652  .00006112  00000+0  23463-3 0  9993","tle2":"2 58701  97.4617   1.7006 0005030 338.0629  22.0394 15.26822993137019"},{"id":"58702","name":"TIANMU-1 17","tle1":"1 58702U 24004C   26176.33125359  .00006399  00000+0  24553-3 0  9993","tle2":"2 58702  97.4644   2.2395 0004711 345.4176  14.6926 15.26822655137014"},{"id":"58703","name":"TIANMU-1 18","tle1":"1 58703U 24004D   26175.45442822  .00004651  00000+0  17799-3 0  9996","tle2":"2 58703  97.4664   1.6230 0003327 349.3855  10.7313 15.27066947136883"},{"id":"58990","name":"INSAT-3DS","tle1":"1 58990U 24033A   26176.13725274 -.00000146  00000+0  00000+0 0  9996","tle2":"2 58990   0.0576 102.6872 0001414 340.0050 322.0784  1.00270849 47142"},{"id":"59051","name":"METEOR-M2 4","tle1":"1 59051U 24039A   26176.27276579  .00000014  00000+0  25921-4 0  9992","tle2":"2 59051  98.7013 135.4693 0007728 139.1326 221.0433 14.22430350120417"},{"id":"60133","name":"GOES 19","tle1":"1 60133U 24119A   26176.15947413 -.00000239  00000+0  00000+0 0  9999","tle2":"2 60133   0.0439 171.1940 0000464 331.0701 113.2562  1.00271732  7047"},{"id":"64723","name":"MTG-S1","tle1":"1 64723U 25143A   26175.74071355  .00000023  00000+0  00000+0 0  9993","tle2":"2 64723   0.5970 340.6178 0000585 288.6722 269.7793  1.00400949  3493"},{"id":"65159","name":"METOP-SGA1","tle1":"1 65159U 25172A   26176.17341652  .00000039  00000+0  38625-4 0  9993","tle2":"2 65159  98.6642 235.7313 0008177  30.1399 330.0247 14.19816295 44929"},{"id":"65815","name":"FENGYUN 3H","tle1":"1 65815U 25219A   26176.28560100  .00000036  00000+0  37179-4 0  9997","tle2":"2 65815  98.6768 116.8973 0001537  71.5183 288.6161 14.19921694 38534"}]